INTELSAT 701 (IS-701)   
1 22871U 93066A   16108.16425808 -.00000237  00000-0  00000+0 0  9996
2 22871   3.3876  69.3067 0003719 323.9721 202.0703  1.00271206 82123
INTELSAT 702 (IS-702)   
1 23124U 94034A   16108.52398978  .00000133  00000-0  00000+0 0  9995
2 23124   3.7335  67.5327 0000444 230.2028 129.8683  1.00270608 94154
INTELSAT 26 (IS-26)     
1 24732U 97007A   16108.80204610  .00000007  00000-0  00000-0 0  9995
2 24732   6.7875  53.2572 0004952 346.4966 157.5008  1.00271821 35517
GALAXY 25 (G-25)        
1 24812U 97026A   16107.68845017 -.00000188  00000-0  00000+0 0  9992
2 24812   0.0215  98.5945 0002912 294.8483 326.5656  1.00271817 69127
INTELSAT 5 (IS-5)       
1 24916U 97046A   16108.19616093 -.00000161  00000-0  00000-0 0  9998
2 24916   2.7153  73.2259 0004003 321.2402  38.9044  1.00271697 68398
INTELSAT 805 (IS-805)   
1 25371U 98037A   16108.34889998 -.00000054  00000-0  00000-0 0  9999
2 25371   0.0477  60.3742 0002757 319.6185 120.4949  1.00272426 65323
INTELSAT 7 (IS-7)       
1 25473U 98052A   16108.81460081 -.00000108  00000-0  00000+0 0  9998
2 25473   2.3758  76.0849 0003021  67.8375 292.4310  0.98212077 64416
AFRISTAR                
1 25515U 98063A   16109.15424883  .00000107  00000-0  00000+0 0  9993
2 25515   2.4808  70.7299 0004569 321.7611 250.7380  1.00273211 63901
INTELSAT 8 (IS-8)       
1 25522U 98065A   16108.45254037 -.00000055  00000-0  00000+0 0  9990
2 25522   0.1361  86.5509 0003516 317.0911 134.1578  1.00269469 63891
GALAXY 27 (G-27)        
1 25922U 99052A   16108.45327638 -.00000027  00000-0  00000-0 0  9999
2 25922   2.3843  75.2069 0006090 329.6814  30.5070  1.00273827 14492
GALAXY 11 (G-11)        
1 26038U 99071A   16108.80193175 -.00000009  00000-0  00000-0 0  9995
2 26038   0.0210  95.5352 0015658 216.4237 241.5400  1.00518977  6407
SIRIUS-1                
1 26390U 00035A   16109.24360353 -.00000088  00000-0  00000+0 0  9997
2 26390  59.6577 233.2943 2572284 266.5129  62.3370  1.00278768 57864
INTELSAT 9 (IS-9)       
1 26451U 00043A   16109.10005245 -.00000289  00000-0  00000+0 0  9998
2 26451   2.7035  73.4464 0003099 321.3757 164.7567  1.00272694 57621
SIRIUS-2                
1 26483U 00051A   16104.74694506  .00000061  00000-0  00000-0 0  9999
2 26483  64.5108 113.4945 2838116 266.1760   0.6251  1.00282043  7914
INTELSAT 12 (IS-12)     
1 26590U 00068A   16109.15289149  .00000115  00000-0  00000+0 0  9998
2 26590   0.0220 250.9386 0002272 152.9143 262.8747  1.00272665 56577
INTELSAT 1R (IS-1R)     
1 26608U 00072A   16109.42487122 -.00000303  00000-0  00000+0 0  9994
2 26608   0.0120 249.3862 0001281  14.5742  45.9590  1.00268016 56430
SIRIUS-3                
1 26626U 00077A   16106.59001595 -.00000166  00000-0  00000+0 0  9997
2 26626  64.4224 353.3849 2658519 268.3582  61.4433  1.00280013 56312
XM-1 (ROLL)             
1 26761U 01018A   16108.84173843 -.00000052  00000-0  00000-0 0  9994
2 26761   0.1805  88.9803 0002202 352.1491 161.2295  0.99004790  9367
INTELSAT 10 (IS-10)     
1 26766U 01019A   16108.97057086  .00000105  00000-0  00000+0 0  9991
2 26766   0.6365  86.7926 0002368 293.8588 222.7658  1.00273833 54704
INTELSAT 901 (IS-901)   
1 26824U 01024A   16108.85456473 -.00000163  00000-0  00000-0 0  9998
2 26824   0.0211 305.6101 0002752  85.7107 104.7134  1.00272621 54480
INTELSAT 902 (IS-902)   
1 26900U 01039A   16109.14502138  .00000011  00000-0  00000+0 0  9992
2 26900   0.0074 237.9123 0003070 159.1170 283.8668  1.00272780 53546
DIRECTV 4S              
1 26985U 01052A   16109.29477440 -.00000134  00000-0  00000+0 0  9990
2 26985   0.0376  75.5317 0002399 314.3391 181.8747  1.00272067 52775
INTELSAT 904 (IS-904)   
1 27380U 02007A   16108.80198512  .00000026  00000-0  00000+0 0  9996
2 27380   0.0325 288.8598 0003532  59.5228 206.6976  1.00273415 51863
INTELSAT 903 (IS-903)   
1 27403U 02016A   16109.09176296 -.00000260  00000-0  00000+0 0  9990
2 27403   0.0190 113.5662 0003088 277.0482 174.5482  1.00271063 51424
DIRECTV 5 (TEMPO 1)     
1 27426U 02023A   16107.73568334 -.00000081  00000-0  00000+0 0  9991
2 27426   0.0208 223.8490 0003600 160.2621 335.9057  1.00270216 51072
INTELSAT 905 (IS-905)   
1 27438U 02027A   16108.84590650 -.00000206  00000-0  00000-0 0  9997
2 27438   0.0209 262.5030 0002552 120.4209 103.4914  1.00271905 14155
GALAXY 3C (G-3C)        
1 27445U 02030A   16108.69120309 -.00000173  00000-0  00000+0 0  9994
2 27445   0.0160 251.6652 0001768 107.2862   1.0482  1.00270146 50737
INTELSAT 906 (IS-906)   
1 27513U 02041A   16109.14831435 -.00000007  00000-0  00000+0 0  9998
2 27513   0.0236 268.9556 0002108 117.5111 297.7674  1.00272887 49741
INTELSAT 907 (IS-907)   
1 27683U 03007A   16108.50400499 -.00000225  00000-0  00000+0 0  9992
2 27683   0.0107 240.6341 0002668 142.1887 337.1807  1.00271110 48160
GALAXY 12 (G-12)        
1 27715U 03013B   16109.49243495  .00000039  00000-0  00000+0 0  9997
2 27715   0.0226 131.0032 0001905 254.7791 229.5206  1.00271061 47784
GALAXY 23 (G-23)        
1 27854U 03034A   16108.45446135 -.00000010  00000-0  00000+0 0  9995
2 27854   0.0096 239.1663 0003199 154.1174 215.3385  1.00272357 46394
GALAXY 13 (HORIZONS-1)  
1 27954U 03044A   16107.41843459  .00000023  00000-0  00000+0 0  9995
2 27954   0.0167 249.7320 0000470 343.2092 355.6661  1.00266368 45928
DIRECTV 7S              
1 28238U 04016A   16107.41316093 -.00000025  00000-0  00000+0 0  9993
2 28238   0.0400  27.4255 0003000 355.2650 211.9495  1.00271622 43822
INTELSAT 10-02          
1 28358U 04022A   16109.20921530 -.00000032  00000-0  00000+0 0  9998
2 28358   0.0094 178.6547 0001004 171.0259 291.4073  1.00273737 43406
XM-3 (RHYTHM)           
1 28626U 05008A   16108.25105133 -.00000229  00000-0  00000+0 0  9996
2 28626   0.0167  93.2088 0000211 267.8996 209.9589  1.00268349 40831
SPACEWAY 1              
1 28644U 05015A   16109.10393084 -.00000123  00000-0  00000+0 0  9996
2 28644   0.0116 214.3656 0000829 184.6865 102.0808  1.00267293 40292
DIRECTV 8               
1 28659U 05019A   16108.70726367 -.00000138  00000-0  00000+0 0  9991
2 28659   0.0164 284.5110 0003362 101.1443 334.3534  1.00272438 39961
GALAXY 28 (G-28)        
1 28702U 05022A   16109.48751809 -.00000206  00000-0  00000+0 0  9995
2 28702   0.0095 238.3563 0000635 132.0763 283.1007  1.00271987 39605
GALAXY 14 (G-14)        
1 28790U 05030A   16108.64744818  .00000014  00000-0  00000-0 0  9997
2 28790   0.0505  63.1625 0002765 321.6300 289.4655  1.00271032 39092
GALAXY 15 (G-15)        
1 28884U 05041A   16109.43696441  .00000058  00000-0  00000+0 0  9996
2 28884   0.0144  88.1944 0001176 303.9273 199.1703  1.00273853 38401
SPACEWAY 2              
1 28903U 05046B   16108.60276602 -.00000150  00000-0  00000+0 0  9998
2 28903   0.0393  69.9398 0000278 336.5003 277.6335  1.00273949 38267
GALAXY 16 (G-16)        
1 29236U 06023A   16108.60276602 -.00000150  00000-0  00000-0 0  9995
2 29236   0.0195 217.6350 0002802 167.1795 299.3259  1.00272221 36006
DIRECTV 9S              
1 29494U 06043A   16109.55451845 -.00000134  00000-0  00000+0 0  9993
2 29494   0.0082 224.8548 0003480 162.0114 278.7461  1.00272717 34888
XM-4 (BLUES)            
1 29520U 06049A   16108.45461381 -.00000046  00000-0  00000+0 0  9995
2 29520   0.0051 114.1693 0000711 222.6737 277.5828  1.00272560 34761
GALAXY 17 (G-17)        
1 31307U 07016B   16107.32156781 -.00000201  00000-0  00000+0 0  9999
2 31307   0.0520  39.2120 0003427 341.9640 208.4759  1.00272029 32837
DIRECTV 10              
1 31862U 07032A   16107.71543966 -.00000128  00000-0  00000+0 0  9999
2 31862   0.0355  20.3080 0000424 286.3254  53.3529  1.00273179 32178
SPACEWAY 3              
1 32018U 07036A   16109.31562139 -.00000172  00000-0  00000+0 0  9997
2 32018   0.0321  80.8986 0000324 234.7326 269.8777  1.00271033 31903
INTELSAT 11 (IS-11)     
1 32253U 07044B   16109.15796668 -.00000290  00000-0  00000+0 0  9996
2 32253   0.0227 144.3396 0003139 240.0702 196.1523  1.00272909 31303
HORIZONS-2              
1 32388U 07063B   16109.52249120 -.00000203  00000-0  00000+0 0  9997
2 32388   0.0115  52.4246 0003161 332.9390  94.6440  1.00273262 30661
DIRECTV 11              
1 32729U 08013A   16108.60276602 -.00000149  00000-0  00000+0 0  9994
2 32729   0.0188  93.7840 0000136 253.5637 336.6080  1.00271022 29703
GALAXY 18 (G-18)        
1 32951U 08024A   16108.76860880  .00000003  00000-0  00000+0 0  9995
2 32951   0.0184 135.6494 0002928 259.2362 325.1257  1.00272408 28860
INTELSAT 25 (IS-25)     
1 33153U 08034A   16108.51509984 -.00000247  00000-0  00000+0 0  9990
2 33153   0.0323 269.5876 0002040 128.7794 321.6391  1.00272557 28400
GALAXY 19 (G-19)        
1 33376U 08045A   16108.69659431 -.00000162  00000-0  00000+0 0  9997
2 33376   0.0181 210.4473 0003209 176.5956 332.9738  1.00269624 27608
SIRIUS FM-5             
1 35493U 09034A   16108.53653797 -.00000224  00000-0  00000+0 0  9999
2 35493   0.0154 276.5828 0000294  24.8599  11.6588  1.00272025 24741
INTELSAT 14 (IS-14)     
1 36097U 09064A   16108.55251315 -.00000296  00000-0  00000-0 0  9995
2 36097   0.0156 221.9261 0002522 159.4993 338.5852  1.00269811 23505
INTELSAT 15 (IS-15)     
1 36106U 09067A   16109.08111796 -.00000207  00000-0  00000+0 0  9997
2 36106   0.0152 284.4198 0002754 109.6815 286.8693  1.00272218 23370
DIRECTV 12              
1 36131U 09075A   16106.34134280 -.00000131  00000-0  00000+0 0  9999
2 36131   0.0067 215.2121 0000164  96.8220 271.9726  1.00271962 23132
INTELSAT 16 (IS-16)     
1 36397U 10006A   16108.28829919 -.00000309  00000-0  00000+0 0  9991
2 36397   0.0395  63.4916 0002036 306.4505 241.5655  1.00270571 22500
XM-5                    
1 37185U 10053A   16109.30824546 -.00000225  00000-0  00000+0 0  9991
2 37185   0.0238 276.0190 0000957  16.7769 299.7983  1.00265986 20221
INTELSAT 17 (IS-17)     
1 37238U 10065B   16109.14472054 -.00000023  00000-0  00000+0 0  9994
2 37238   0.0214 136.3028 0002409 252.8366 295.6408  1.00271271 19692
INTELSAT NEW DAWN       
1 37392U 11016A   16109.21523640  .00000134  00000-0  00000+0 0  9990
2 37392   0.0165 243.0569 0000333 142.0914 291.9151  1.00270575 18292
INTELSAT 18 (IS-18)     
1 37834U 11056A   16108.57134286  .00000030  00000-0  00000-0 0  9993
2 37834   0.0161 213.7187 0002328 180.9340 197.1375  1.00270978 16716
INTELSAT 22 (IS-22)     
1 38098U 12011A   16108.22810431 -.00000083  00000-0  00000+0 0  9991
2 38098   0.0340  15.5413 0001928  29.7916 314.6738  1.00273099 14828
INTELSAT 19 (IS-19)     
1 38356U 12030A   16107.96794817 -.00000082  00000-0  00000-0 0  9998
2 38356   0.0057 302.8843 0002915  85.0252 332.1061  1.00269689 13243
INTELSAT 20 (IS-20)     
1 38740U 12043A   16108.95812446 -.00000046  00000-0  00000+0 0  9997
2 38740   0.0105 221.0875 0000417  32.2165   6.6127  1.00272503 13608
INTELSAT 21 (IS-21)     
1 38749U 12045A   16107.22404270 -.00000311  00000-0  00000+0 0  9994
2 38749   0.0041 323.3948 0003398  40.1466 223.9008  1.00270900 13393
INTELSAT 23 (IS-23)     
1 38867U 12057A   16108.22722766 -.00000309  00000-0  00000+0 0  9999
2 38867   0.0050 286.3015 0002209  70.1382 238.1356  1.00270291 12887
SIRIUS FM-6             
1 39360U 13058A   16108.74951226 -.00000040  00000-0  00000+0 0  9994
2 39360   0.0150 312.7276 0000832  11.3787  35.8802  1.00272123  9123
INTELSAT 30 (IS-30)     
1 40271U 14062A   16109.16997847 -.00000172  00000-0  00000+0 0  9995
2 40271   0.0122 179.7336 0000462 158.8614 194.2549  1.00272708  5547
INTELSAT 34             
1 40874U 15039A   16108.22760481 -.00000309  00000-0  00000+0 0  9999
2 40874   0.0301 221.3148 0000567  66.1098 304.7900  1.00271698  2445
INTELSAT 29E            
1 41308U 16004A   16108.40111668 -.00000306  00000-0  00000+0 0  9999
2 41308   0.0535   2.5017 0002711  13.6148 284.2303  1.00271102   927
